[{"OBJECT_NAME":"ONEWEB-0363","OBJECT_ID":"2021-090L","EPOCH":"2026-02-05T04:42:39.226176","MEAN_MOTION":13.20774339,"ECCENTRICITY":0.00018445,"INCLINATION":87.9222,"RA_OF_ASC_NODE":300.7803,"ARG_OF_PERICENTER":68.3815,"MEAN_ANOMALY":291.7514,"EPHEMERIS_TYPE":0,"CLASSIFICATION_TYPE":"U","NORAD_CAT_ID":49289,"ELEMENT_SET_NO":999,"REV_AT_EPOCH":21288,"BSTAR":4.4614965e-5,"MEAN_MOTION_DOT":3.1e-7,"MEAN_MOTION_DDOT":0},{"OBJECT_NAME":"ONEWEB-0364","OBJECT_ID":"2021-090M","EPOCH":"2026-02-05T03:48:06.625728","MEAN_MOTION":13.20774312,"ECCENTRICITY":0.0001726,"INCLINATION":87.921,"RA_OF_ASC_NODE":300.8057,"ARG_OF_PERICENTER":74.5058,"MEAN_ANOMALY":285.6266,"EPHEMERIS_TYPE":0,"CLASSIFICATION_TYPE":"U","NORAD_CAT_ID":49290,"ELEMENT_SET_NO":999,"REV_AT_EPOCH":21401,"BSTAR":0.00012640245,"MEAN_MOTION_DOT":6.4e-7,"MEAN_MOTION_DDOT":0},{"OBJECT_NAME":"ONEWEB-0365","OBJECT_ID":"2021-090N","EPOCH":"2026-02-05T06:22:17.178240","MEAN_MOTION":13.1972435,"ECCENTRICITY":0.00016787,"INCLINATION":87.926,"RA_OF_ASC_NODE":331.2158,"ARG_OF_PERICENTER":78.5236,"MEAN_ANOMALY":281.6085,"EPHEMERIS_TYPE":0,"CLASSIFICATION_TYPE":"U","NORAD_CAT_ID":49291,"ELEMENT_SET_NO":999,"REV_AT_EPOCH":20902,"BSTAR":-0.00010702805,"MEAN_MOTION_DOT":-3.0e-7,"MEAN_MOTION_DDOT":0},{"OBJECT_NAME":"ONEWEB-0366","OBJECT_ID":"2021-090P","EPOCH":"2026-02-05T05:15:47.111328","MEAN_MOTION":13.14504475,"ECCENTRICITY":0.00017094,"INCLINATION":87.902,"RA_OF_ASC_NODE":316.0261,"ARG_OF_PERICENTER":77.254,"MEAN_ANOMALY":282.878,"EPHEMERIS_TYPE":0,"CLASSIFICATION_TYPE":"U","NORAD_CAT_ID":49292,"ELEMENT_SET_NO":999,"REV_AT_EPOCH":21022,"BSTAR":0.00075165361,"MEAN_MOTION_DOT":2.91e-6,"MEAN_MOTION_DDOT":0},{"OBJECT_NAME":"ONEWEB-0367","OBJECT_ID":"2021-090Q","EPOCH":"2026-02-05T02:51:17.704224","MEAN_MOTION":13.20769847,"ECCENTRICITY":0.00015965,"INCLINATION":87.9222,"RA_OF_ASC_NODE":300.7956,"ARG_OF_PERICENTER":82.8292,"MEAN_ANOMALY":277.3023,"EPHEMERIS_TYPE":0,"CLASSIFICATION_TYPE":"U","NORAD_CAT_ID":49293,"ELEMENT_SET_NO":999,"REV_AT_EPOCH":21239,"BSTAR":-7.3585582e-5,"MEAN_MOTION_DOT":-1.7e-7,"MEAN_MOTION_DDOT":0},{"OBJECT_NAME":"ONEWEB-0368","OBJECT_ID":"2021-090R","EPOCH":"2026-02-05T04:01:45.051456","MEAN_MOTION":13.20770101,"ECCENTRICITY":0.00014212,"INCLINATION":87.9212,"RA_OF_ASC_NODE":300.8104,"ARG_OF_PERICENTER":48.8025,"MEAN_ANOMALY":311.3231,"EPHEMERIS_TYPE":0,"CLASSIFICATION_TYPE":"U","NORAD_CAT_ID":49294,"ELEMENT_SET_NO":999,"REV_AT_EPOCH":21355,"BSTAR":-0.00013065844,"MEAN_MOTION_DOT":-4.0e-7,"MEAN_MOTION_DDOT":0},{"OBJECT_NAME":"ONEWEB-0369","OBJECT_ID":"2021-090S","EPOCH":"2026-02-05T06:15:28.038816","MEAN_MOTION":13.19727554,"ECCENTRICITY":0.00016678,"INCLINATION":87.9247,"RA_OF_ASC_NODE":331.2384,"ARG_OF_PERICENTER":77.6102,"MEAN_ANOMALY":282.5217,"EPHEMERIS_TYPE":0,"CLASSIFICATION_TYPE":"U","NORAD_CAT_ID":49295,"ELEMENT_SET_NO":999,"REV_AT_EPOCH":20901,"BSTAR":-0.0001278465,"MEAN_MOTION_DOT":-3.8e-7,"MEAN_MOTION_DDOT":0},{"OBJECT_NAME":"ONEWEB-0370","OBJECT_ID":"2021-090T","EPOCH":"2026-02-05T04:54:02.343456","MEAN_MOTION":13.20773934,"ECCENTRICITY":0.0001757,"INCLINATION":87.9219,"RA_OF_ASC_NODE":300.7805,"ARG_OF_PERICENTER":86.3136,"MEAN_ANOMALY":273.8199,"EPHEMERIS_TYPE":0,"CLASSIFICATION_TYPE":"U","NORAD_CAT_ID":49296,"ELEMENT_SET_NO":999,"REV_AT_EPOCH":21244,"BSTAR":5.7730928e-5,"MEAN_MOTION_DOT":3.6e-7,"MEAN_MOTION_DDOT":0},{"OBJECT_NAME":"ONEWEB-0371","OBJECT_ID":"2021-090U","EPOCH":"2026-02-05T00:59:18.673440","MEAN_MOTION":13.19727689,"ECCENTRICITY":0.00016795,"INCLINATION":87.9248,"RA_OF_ASC_NODE":331.2703,"ARG_OF_PERICENTER":81.622,"MEAN_ANOMALY":278.5103,"EPHEMERIS_TYPE":0,"CLASSIFICATION_TYPE":"U","NORAD_CAT_ID":49297,"ELEMENT_SET_NO":999,"REV_AT_EPOCH":20902,"BSTAR":-0.00010530173,"MEAN_MOTION_DOT":-2.9e-7,"MEAN_MOTION_DDOT":0},{"OBJECT_NAME":"ONEWEB-0372","OBJECT_ID":"2021-090V","EPOCH":"2026-02-05T04:37:54.545088","MEAN_MOTION":13.2077449,"ECCENTRICITY":0.00015264,"INCLINATION":87.9219,"RA_OF_ASC_NODE":300.7819,"ARG_OF_PERICENTER":77.3483,"MEAN_ANOMALY":282.7821,"EPHEMERIS_TYPE":0,"CLASSIFICATION_TYPE":"U","NORAD_CAT_ID":49298,"ELEMENT_SET_NO":999,"REV_AT_EPOCH":21241,"BSTAR":8.421597e-6,"MEAN_MOTION_DOT":1.6e-7,"MEAN_MOTION_DDOT":0},{"OBJECT_NAME":"ONEWEB-0373","OBJECT_ID":"2021-090W","EPOCH":"2026-02-04T23:49:28.924896","MEAN_MOTION":13.20770116,"ECCENTRICITY":0.00017533,"INCLINATION":87.9211,"RA_OF_ASC_NODE":300.8309,"ARG_OF_PERICENTER":77.0912,"MEAN_ANOMALY":283.0417,"EPHEMERIS_TYPE":0,"CLASSIFICATION_TYPE":"U","NORAD_CAT_ID":49299,"ELEMENT_SET_NO":999,"REV_AT_EPOCH":21357,"BSTAR":2.6252908e-5,"MEAN_MOTION_DOT":2.4e-7,"MEAN_MOTION_DDOT":0},{"OBJECT_NAME":"ONEWEB-0374","OBJECT_ID":"2021-090X","EPOCH":"2026-02-05T04:57:30.379968","MEAN_MOTION":13.14502756,"ECCENTRICITY":0.00019103,"INCLINATION":87.9026,"RA_OF_ASC_NODE":316.0105,"ARG_OF_PERICENTER":61.7365,"MEAN_ANOMALY":298.3957,"EPHEMERIS_TYPE":0,"CLASSIFICATION_TYPE":"U","NORAD_CAT_ID":49300,"ELEMENT_SET_NO":999,"REV_AT_EPOCH":21022,"BSTAR":0.00030306522,"MEAN_MOTION_DOT":1.25e-6,"MEAN_MOTION_DDOT":0},{"OBJECT_NAME":"ONEWEB-0375","OBJECT_ID":"2021-090Y","EPOCH":"2026-02-05T04:58:35.057280","MEAN_MOTION":13.20772074,"ECCENTRICITY":0.00021237,"INCLINATION":87.9219,"RA_OF_ASC_NODE":300.7719,"ARG_OF_PERICENTER":68.6664,"MEAN_ANOMALY":291.4696,"EPHEMERIS_TYPE":0,"CLASSIFICATION_TYPE":"U","NORAD_CAT_ID":49301,"ELEMENT_SET_NO":999,"REV_AT_EPOCH":21310,"BSTAR":7.8033901e-5,"MEAN_MOTION_DOT":4.5e-7,"MEAN_MOTION_DDOT":0},{"OBJECT_NAME":"ONEWEB-0376","OBJECT_ID":"2021-090Z","EPOCH":"2026-02-05T06:24:33.349824","MEAN_MOTION":13.19723594,"ECCENTRICITY":0.00015558,"INCLINATION":87.9256,"RA_OF_ASC_NODE":331.2163,"ARG_OF_PERICENTER":79.9975,"MEAN_ANOMALY":280.1333,"EPHEMERIS_TYPE":0,"CLASSIFICATION_TYPE":"U","NORAD_CAT_ID":49302,"ELEMENT_SET_NO":999,"REV_AT_EPOCH":20905,"BSTAR":-0.00011057643,"MEAN_MOTION_DOT":-3.1e-7,"MEAN_MOTION_DDOT":0},{"OBJECT_NAME":"ONEWEB-0377","OBJECT_ID":"2021-090AA","EPOCH":"2026-02-05T04:38:20.376960","MEAN_MOTION":13.2078169,"ECCENTRICITY":0.00028339,"INCLINATION":87.9219,"RA_OF_ASC_NODE":300.7777,"ARG_OF_PERICENTER":60.3682,"MEAN_ANOMALY":299.7733,"EPHEMERIS_TYPE":0,"CLASSIFICATION_TYPE":"U","NORAD_CAT_ID":49303,"ELEMENT_SET_NO":999,"REV_AT_EPOCH":21309,"BSTAR":-0.0015894953,"MEAN_MOTION_DOT":-6.33e-6,"MEAN_MOTION_DDOT":0},{"OBJECT_NAME":"ONEWEB-0378","OBJECT_ID":"2021-090AB","EPOCH":"2026-02-05T03:21:02.575296","MEAN_MOTION":13.20764731,"ECCENTRICITY":0.0001669,"INCLINATION":87.9215,"RA_OF_ASC_NODE":300.8001,"ARG_OF_PERICENTER":76.9431,"MEAN_ANOMALY":283.1889,"EPHEMERIS_TYPE":0,"CLASSIFICATION_TYPE":"U","NORAD_CAT_ID":49304,"ELEMENT_SET_NO":999,"REV_AT_EPOCH":21235,"BSTAR":0.0028582657,"MEAN_MOTION_DOT":1.175e-5,"MEAN_MOTION_DDOT":0},{"OBJECT_NAME":"ONEWEB-0379","OBJECT_ID":"2021-090AC","EPOCH":"2026-02-05T04:50:38.924160","MEAN_MOTION":13.14503119,"ECCENTRICITY":0.00016882,"INCLINATION":87.9027,"RA_OF_ASC_NODE":316.0206,"ARG_OF_PERICENTER":73.5988,"MEAN_ANOMALY":286.5328,"EPHEMERIS_TYPE":0,"CLASSIFICATION_TYPE":"U","NORAD_CAT_ID":49305,"ELEMENT_SET_NO":999,"REV_AT_EPOCH":21022,"BSTAR":0.00010976771,"MEAN_MOTION_DOT":5.3e-7,"MEAN_MOTION_DDOT":0}]
