ONEWEB-0363             
1 49289U 21090L   26036.19628734  .00000031  00000+0  44615-4 0  9998
2 49289  87.9222 300.7803 0001844  68.3815 291.7514 13.20774339212882
ONEWEB-0364             
1 49290U 21090M   26036.15841002  .00000064  00000+0  12640-3 0  9999
2 49290  87.9210 300.8057 0001726  74.5058 285.6266 13.20774312214014
ONEWEB-0365             
1 49291U 21090N   26036.26547660 -.00000030  00000+0 -10703-3 0  9998
2 49291  87.9260 331.2158 0001678  78.5236 281.6085 13.19724350209023
ONEWEB-0366             
1 49292U 21090P   26036.21929527  .00000291  00000+0  75165-3 0  9990
2 49292  87.9020 316.0261 0001709  77.2540 282.8780 13.14504475210221
ONEWEB-0367             
1 49293U 21090Q   26036.11895491 -.00000017  00000+0 -73586-4 0  9996
2 49293  87.9222 300.7956 0001596  82.8292 277.3023 13.20769847212399
ONEWEB-0368             
1 49294U 21090R   26036.16788254 -.00000040  00000+0 -13066-3 0  9992
2 49294  87.9212 300.8104 0001421  48.8025 311.3231 13.20770101213552
ONEWEB-0369             
1 49295U 21090S   26036.26074119 -.00000038  00000+0 -12785-3 0  9996
2 49295  87.9247 331.2384 0001667  77.6102 282.5217 13.19727554209018
ONEWEB-0370             
1 49296U 21090T   26036.20419379  .00000036  00000+0  57731-4 0  9999
2 49296  87.9219 300.7805 0001757  86.3136 273.8199 13.20773934212449
ONEWEB-0371             
1 49297U 21090U   26036.04118835 -.00000029  00000+0 -10530-3 0  9994
2 49297  87.9248 331.2703 0001679  81.6220 278.5103 13.19727689209024
ONEWEB-0372             
1 49298U 21090V   26036.19299242  .00000016  00000+0  84216-5 0  9991
2 49298  87.9219 300.7819 0001526  77.3483 282.7821 13.20774490212411
ONEWEB-0373             
1 49299U 21090W   26035.99269589  .00000024  00000+0  26253-4 0  9995
2 49299  87.9211 300.8309 0001753  77.0912 283.0417 13.20770116213579
ONEWEB-0374             
1 49300U 21090X   26036.20660162  .00000125  00000+0  30307-3 0  9991
2 49300  87.9026 316.0105 0001910  61.7365 298.3957 13.14502756210229
ONEWEB-0375             
1 49301U 21090Y   26036.20735020  .00000045  00000+0  78034-4 0  9999
2 49301  87.9219 300.7719 0002123  68.6664 291.4696 13.20772074213103
ONEWEB-0376             
1 49302U 21090Z   26036.26705266 -.00000031  00000+0 -11058-3 0  9994
2 49302  87.9256 331.2163 0001555  79.9975 280.1333 13.19723594209058
ONEWEB-0377             
1 49303U 21090AA  26036.19329140 -.00000633  00000+0 -15895-2 0  9990
2 49303  87.9219 300.7777 0002833  60.3682 299.7733 13.20781690213091
ONEWEB-0378             
1 49304U 21090AB  26036.13961314  .00001175  00000+0  28583-2 0  9998
2 49304  87.9215 300.8001 0001669  76.9431 283.1889 13.20764731212354
ONEWEB-0379             
1 49305U 21090AC  26036.20183940  .00000053  00000+0  10977-3 0  9991
2 49305  87.9027 316.0206 0001688  73.5988 286.5328 13.14503119210226
